{"type":"FeatureCollection","attribution":"datta07/INDIAN-SHAPEFILES (MIT), simplified","features":[{"type":"Feature","properties":{"name":"Arunachal Pradesh"},"geometry":{"type":"Polygon","coordinates":[[[96.094,29.455],[95.6,29.26],[95.448,29.034],[94.8,29.164],[94.631,29.348],[94.56,29.229],[94.217,29.084],[93.928,28.671],[93.339,28.64],[93.185,28.44],[93.221,28.333],[92.689,28.125],[92.741,27.989],[92.562,27.82],[92.309,27.779],[92.212,27.859],[91.921,27.715],[91.826,27.81],[91.555,27.859],[91.642,27.765],[91.564,27.584],[91.655,27.483],[92.02,27.479],[92.122,27.287],[92.041,27.266],[92.023,27.114],[92.108,26.893],[92.672,27.032],[93.022,26.914],[93.489,26.936],[93.829,27.067],[93.825,27.169],[94.268,27.521],[94.237,27.633],[94.462,27.555],[95.605,27.955],[95.972,27.963],[95.752,27.721],[95.877,27.544],[95.844,27.422],[96.018,27.365],[95.892,27.255],[95.509,27.262],[95.453,27.13],[95.197,27.037],[95.26,26.655],[95.723,26.881],[95.802,27.015],[96.229,27.279],[96.704,27.372],[96.884,27.26],[96.857,27.192],[97.138,27.091],[96.903,27.453],[96.89,27.606],[97.253,27.901],[97.385,27.887],[97.411,28.015],[97.304,28.069],[97.397,28.192],[97.09,28.363],[96.994,28.31],[96.663,28.46],[96.398,28.339],[96.262,28.409],[96.615,28.774],[96.477,28.99],[96.525,29.076],[96.166,28.903],[96.115,29.075],[96.393,29.254],[96.244,29.233],[96.094,29.455]]]}},{"type":"Feature","properties":{"name":"Assam"},"geometry":{"type":"Polygon","coordinates":[[[95.972,27.963],[95.605,27.955],[94.462,27.555],[94.237,27.633],[94.268,27.521],[93.825,27.169],[93.829,27.067],[93.587,26.951],[93.022,26.914],[92.672,27.032],[92.056,26.847],[91.893,26.919],[91.69,26.807],[90.717,26.768],[90.357,26.901],[90.14,26.754],[89.862,26.737],[89.856,26.384],[89.72,26.307],[89.699,26.191],[89.887,25.945],[89.817,25.815],[89.851,25.466],[90.02,25.608],[89.895,25.745],[90.151,25.967],[90.476,26.01],[90.515,25.896],[90.588,25.958],[90.622,25.898],[90.947,25.948],[91.006,25.82],[91.196,25.861],[91.222,25.723],[91.335,25.841],[91.53,25.871],[91.475,25.874],[91.58,26.033],[91.671,25.904],[91.825,26.12],[91.919,25.998],[92.275,26.066],[92.152,25.944],[92.225,25.909],[92.156,25.672],[92.384,25.755],[92.572,25.557],[92.653,25.591],[92.565,25.466],[92.782,25.333],[92.803,25.217],[92.481,25.109],[92.416,24.99],[92.492,24.874],[92.234,24.901],[92.296,24.737],[92.192,24.243],[92.422,24.255],[92.479,24.142],[92.763,24.521],[92.829,24.374],[93.04,24.412],[93.109,24.812],[93.197,24.811],[93.244,25.018],[93.47,25.305],[93.458,25.431],[93.327,25.547],[93.714,25.845],[93.681,25.904],[93.765,25.97],[93.795,25.809],[93.979,25.917],[94.001,26.172],[94.256,26.541],[94.316,26.458],[94.46,26.662],[94.758,26.766],[94.922,26.946],[95.017,26.921],[95.453,27.13],[95.509,27.262],[95.892,27.255],[96.018,27.365],[95.844,27.422],[95.877,27.544],[95.752,27.721],[95.972,27.963]]]}},{"type":"Feature","properties":{"name":"Chandigarh"},"geometry":{"type":"Polygon","coordinates":[[[76.783,30.789],[76.707,30.741],[76.803,30.666],[76.849,30.723],[76.783,30.789]]]}},{"type":"Feature","properties":{"name":"Chhattisgarh"},"geometry":{"type":"Polygon","coordinates":[[[83.33,24.102],[83.141,23.885],[82.948,23.871],[82.802,23.962],[82.523,23.784],[81.929,23.871],[81.791,23.809],[81.609,23.903],[81.696,23.721],[81.577,23.585],[81.627,23.482],[81.747,23.57],[81.923,23.533],[81.985,23.415],[82.194,23.324],[82.161,23.143],[81.942,23.079],[81.946,22.957],[81.776,22.874],[81.769,22.664],[81.622,22.538],[81.407,22.441],[81.327,22.526],[81.111,22.438],[81.005,22.062],[80.908,22.11],[80.82,21.748],[80.726,21.714],[80.68,21.299],[80.464,21.175],[80.424,21.01],[80.546,20.935],[80.587,20.686],[80.481,20.618],[80.632,20.598],[80.626,20.336],[80.395,20.245],[80.402,20.147],[80.557,20.072],[80.53,19.939],[80.411,19.938],[80.506,19.871],[80.402,19.796],[80.546,19.818],[80.676,19.699],[80.665,19.612],[80.898,19.482],[80.757,19.29],[80.613,19.309],[80.573,19.402],[80.394,19.245],[80.273,18.993],[80.354,18.827],[80.244,18.756],[80.346,18.595],[80.515,18.619],[80.735,18.413],[80.794,18.259],[80.745,18.17],[80.837,18.242],[80.867,18.14],[80.979,18.179],[81.018,17.791],[81.166,17.858],[81.393,17.795],[81.525,18.258],[81.75,18.354],[81.964,18.59],[81.894,18.657],[82.085,18.719],[82.246,18.919],[82.166,19.133],[82.189,19.428],[82.029,19.508],[82.066,19.791],[81.853,19.918],[81.876,20.052],[81.946,20.105],[82.033,20.016],[82.237,20.004],[82.345,19.836],[82.446,19.91],[82.596,19.873],[82.592,19.776],[82.718,19.854],[82.715,19.995],[82.399,20.057],[82.438,20.434],[82.332,20.562],[82.351,20.89],[82.465,20.828],[82.64,21.155],[83.192,21.139],[83.269,21.379],[83.407,21.352],[83.338,21.502],[83.383,21.62],[83.49,21.631],[83.418,21.68],[83.469,21.787],[83.591,21.851],[83.537,22.044],[83.627,22.204],[84.01,22.372],[84.009,22.573],[84.22,22.667],[84.381,22.877],[84.374,22.979],[84.186,23.027],[84.149,22.965],[84.133,23.083],[84.037,23.14],[84.075,23.333],[83.962,23.385],[84.017,23.634],[83.938,23.569],[83.772,23.611],[83.705,23.821],[83.571,23.862],[83.516,24.027],[83.33,24.102]]]}},{"type":"Feature","properties":{"name":"Delhi"},"geometry":{"type":"Polygon","coordinates":[[[77.088,28.875],[76.951,28.818],[76.944,28.628],[76.842,28.556],[77.095,28.514],[77.217,28.41],[77.345,28.513],[77.331,28.713],[77.21,28.858],[77.088,28.875]]]}},{"type":"Feature","properties":{"name":"Goa"},"geometry":{"type":"Polygon","coordinates":[[[73.856,15.801],[73.675,15.727],[73.788,15.462],[73.94,15.409],[73.783,15.412],[73.879,15.363],[73.912,15.085],[74.044,14.918],[74.201,14.925],[74.297,15.041],[74.251,15.259],[74.336,15.295],[74.251,15.657],[73.991,15.611],[73.856,15.801]]]}},{"type":"Feature","properties":{"name":"Haryana"},"geometry":{"type":"Polygon","coordinates":[[[76.829,30.917],[76.777,30.904],[76.857,30.795],[76.833,30.663],[76.926,30.61],[76.936,30.385],[76.741,30.426],[76.746,30.35],[76.557,30.262],[76.656,30.185],[76.546,30.076],[76.423,30.192],[76.322,30.095],[76.208,30.157],[76.253,30.089],[76.172,29.926],[76.244,29.852],[76.043,29.743],[75.779,29.822],[75.58,29.739],[75.46,29.808],[75.235,29.542],[75.168,29.67],[75.211,29.832],[75.151,29.776],[75.099,29.913],[74.991,29.868],[74.812,29.992],[74.654,29.906],[74.532,29.949],[74.561,29.87],[74.474,29.768],[74.616,29.752],[74.622,29.522],[74.535,29.448],[74.599,29.327],[74.851,29.404],[75.076,29.23],[75.41,29.256],[75.371,29.138],[75.522,29.004],[75.473,28.923],[75.561,28.613],[75.777,28.4],[75.918,28.372],[76.095,28.151],[75.946,28.107],[76.041,28.074],[75.932,27.93],[75.971,27.852],[76.217,27.817],[76.158,27.989],[76.18,28.055],[76.342,28.031],[76.292,28.179],[76.476,28.149],[76.455,28.042],[76.544,28.034],[76.548,27.964],[76.875,28.218],[76.971,28.138],[76.89,27.696],[76.979,27.654],[77.0,27.737],[77.086,27.738],[77.045,27.822],[77.243,27.785],[77.546,27.958],[77.474,28.087],[77.55,28.18],[77.478,28.419],[77.345,28.513],[77.174,28.405],[77.095,28.514],[76.884,28.501],[76.84,28.582],[76.944,28.628],[76.951,28.818],[77.228,28.881],[77.134,29.096],[77.12,29.76],[77.276,30.04],[77.423,30.103],[77.604,30.369],[77.523,30.444],[77.443,30.395],[77.456,30.456],[77.211,30.465],[77.123,30.563],[77.167,30.684],[76.829,30.917]]]}},{"type":"Feature","properties":{"name":"Himachal Pradesh"},"geometry":{"type":"Polygon","coordinates":[[[76.799,33.256],[76.747,33.179],[76.41,33.186],[75.954,32.873],[75.801,32.886],[75.925,32.748],[75.834,32.512],[75.935,32.393],[75.618,32.237],[75.673,32.159],[75.595,32.07],[75.91,31.95],[76.18,31.307],[76.323,31.322],[76.375,31.437],[76.44,31.279],[76.642,31.223],[76.625,30.999],[76.917,30.901],[77.021,30.74],[77.161,30.691],[77.123,30.563],[77.211,30.465],[77.456,30.456],[77.443,30.395],[77.523,30.444],[77.581,30.378],[77.819,30.508],[77.704,30.765],[77.806,30.853],[77.749,30.954],[77.838,30.953],[77.811,31.059],[77.899,31.15],[78.37,31.286],[78.484,31.199],[78.81,31.198],[78.885,31.099],[79.009,31.11],[78.75,31.366],[78.798,31.443],[78.72,31.507],[78.847,31.608],[78.705,31.776],[78.781,31.993],[78.613,32.118],[78.609,32.214],[78.455,32.242],[78.535,32.414],[78.461,32.494],[78.295,32.504],[78.405,32.619],[78.388,32.757],[78.016,32.62],[77.682,32.989],[77.339,32.817],[77.15,32.978],[76.933,33.028],[76.799,33.256]]]}},{"type":"Feature","properties":{"name":"Jharkhand"},"geometry":{"type":"Polygon","coordinates":[[[87.592,25.342],[87.487,25.297],[87.478,25.194],[87.328,25.224],[87.296,25.089],[87.146,25.019],[87.051,24.609],[86.94,24.653],[86.916,24.545],[86.603,24.608],[86.445,24.368],[86.276,24.466],[86.323,24.587],[86.132,24.603],[86.055,24.78],[85.945,24.733],[85.737,24.821],[85.668,24.579],[85.371,24.555],[85.089,24.372],[85.08,24.433],[84.904,24.372],[84.802,24.531],[84.665,24.391],[84.568,24.409],[84.496,24.286],[84.297,24.449],[84.297,24.56],[84.108,24.477],[84.008,24.643],[83.873,24.532],[83.402,24.503],[83.457,24.365],[83.33,24.102],[83.516,24.027],[83.571,23.862],[83.705,23.821],[83.772,23.611],[83.938,23.569],[84.017,23.634],[83.962,23.385],[84.075,23.333],[84.037,23.14],[84.133,23.083],[84.149,22.965],[84.186,23.027],[84.396,22.939],[84.22,22.667],[84.084,22.638],[84.009,22.526],[84.291,22.343],[85.067,22.484],[85.117,22.294],[84.984,22.086],[85.098,22.106],[85.237,22.009],[85.398,22.163],[85.685,22.055],[85.81,22.116],[85.766,21.995],[85.908,21.971],[86.031,22.19],[85.957,22.465],[86.045,22.568],[86.433,22.306],[86.497,22.347],[86.753,22.211],[86.887,22.257],[86.751,22.456],[86.766,22.576],[86.659,22.576],[86.635,22.666],[86.419,22.791],[86.436,22.926],[86.548,22.989],[86.223,22.995],[86.044,23.145],[85.894,23.155],[85.82,23.268],[85.903,23.399],[85.863,23.462],[86.054,23.487],[86.052,23.586],[86.31,23.412],[86.462,23.63],[86.799,23.689],[86.805,23.838],[87.241,23.826],[87.295,23.902],[87.245,24.045],[87.46,23.984],[87.498,24.118],[87.695,24.149],[87.639,24.255],[87.81,24.405],[87.772,24.584],[87.909,24.586],[87.908,24.721],[87.818,24.761],[87.962,24.938],[87.796,25.087],[87.779,25.251],[87.592,25.342]]]}},{"type":"Feature","properties":{"name":"Karnataka"},"geometry":{"type":"Polygon","coordinates":[[[77.326,18.459],[77.112,18.156],[76.952,18.188],[76.919,17.916],[76.74,17.9],[76.79,17.826],[76.691,17.681],[76.523,17.76],[76.49,17.66],[76.331,17.597],[76.383,17.315],[76.242,17.379],[76.176,17.301],[76.119,17.371],[75.931,17.323],[75.884,17.418],[75.793,17.37],[75.633,17.477],[75.574,17.383],[75.658,17.263],[75.67,16.962],[75.28,16.957],[75.214,16.842],[75.089,16.952],[74.932,16.945],[74.92,16.772],[74.691,16.716],[74.687,16.607],[74.569,16.554],[74.469,16.664],[74.38,16.529],[74.271,16.548],[74.364,16.405],[74.325,16.272],[74.481,16.25],[74.491,16.111],[74.361,16.054],[74.463,16.043],[74.406,15.855],[74.338,15.855],[74.368,15.786],[74.209,15.781],[74.088,15.673],[74.251,15.657],[74.336,15.295],[74.251,15.259],[74.297,15.041],[74.086,14.901],[74.093,14.804],[74.263,14.719],[74.61,13.867],[74.865,12.76],[75.003,12.792],[75.047,12.667],[75.152,12.682],[75.22,12.568],[75.326,12.594],[75.273,12.537],[75.336,12.464],[75.417,12.499],[75.366,12.457],[75.415,12.288],[75.803,12.08],[75.87,11.952],[76.112,11.979],[76.12,11.85],[76.614,11.608],[76.856,11.599],[76.897,11.777],[76.982,11.812],[77.118,11.721],[77.25,11.813],[77.427,11.761],[77.494,11.943],[77.676,11.952],[77.777,12.114],[77.728,12.182],[77.472,12.208],[77.617,12.368],[77.599,12.667],[77.74,12.673],[77.836,12.87],[78.231,12.761],[78.356,12.941],[78.465,12.867],[78.411,12.945],[78.58,13.167],[78.57,13.309],[78.377,13.332],[78.402,13.587],[78.193,13.565],[78.168,13.656],[78.087,13.643],[78.124,13.845],[78.049,13.896],[77.953,13.827],[77.988,13.956],[77.827,13.945],[77.717,13.741],[77.527,13.754],[77.525,13.691],[77.455,13.682],[77.433,13.843],[77.2,13.863],[77.185,13.925],[77.128,13.856],[77.173,13.762],[76.999,13.746],[77.042,13.933],[76.895,14.168],[77.023,14.177],[77.028,14.062],[77.149,14.001],[77.322,14.03],[77.4,13.888],[77.438,13.976],[77.332,14.031],[77.401,14.119],[77.351,14.13],[77.504,14.157],[77.504,14.264],[77.393,14.336],[77.392,14.199],[77.287,14.34],[77.157,14.342],[77.108,14.22],[76.94,14.245],[76.885,14.396],[76.975,14.485],[76.868,14.474],[76.765,14.602],[76.87,14.938],[76.767,14.976],[76.777,15.078],[77.082,15.006],[77.169,15.171],[76.974,15.498],[77.03,15.635],[77.129,15.666],[77.034,15.859],[77.185,15.957],[77.513,15.927],[77.49,16.255],[77.598,16.293],[77.236,16.473],[77.467,16.599],[77.419,16.669],[77.503,17.014],[77.38,17.223],[77.513,17.431],[77.693,17.499],[77.443,17.584],[77.656,17.968],[77.548,18.065],[77.605,18.281],[77.366,18.307],[77.414,18.393],[77.326,18.459]]]}},{"type":"Feature","properties":{"name":"Manipur"},"geometry":{"type":"Polygon","coordinates":[[[94.596,25.683],[94.322,25.503],[94.013,25.593],[93.765,25.538],[93.805,25.463],[93.605,25.199],[93.454,25.325],[93.244,25.018],[93.197,24.811],[93.109,24.812],[92.973,24.113],[93.099,24.043],[93.25,24.08],[93.253,24.021],[93.349,24.105],[93.506,23.942],[93.754,24.006],[93.808,23.927],[94.157,23.848],[94.322,24.329],[94.744,25.037],[94.736,25.135],[94.576,25.214],[94.675,25.446],[94.554,25.503],[94.596,25.683]]]}},{"type":"Feature","properties":{"name":"Meghalaya"},"geometry":{"type":"Polygon","coordinates":[[[91.866,26.101],[91.731,26.059],[91.671,25.904],[91.58,26.033],[91.475,25.874],[91.53,25.871],[91.335,25.841],[91.222,25.723],[91.196,25.861],[91.006,25.82],[90.947,25.948],[90.622,25.898],[90.588,25.958],[90.515,25.896],[90.502,25.992],[90.4,26.013],[90.116,25.957],[89.895,25.745],[90.02,25.608],[89.878,25.55],[89.835,25.296],[90.445,25.144],[91.265,25.207],[91.642,25.124],[92.062,25.188],[92.429,25.029],[92.522,25.139],[92.803,25.217],[92.782,25.333],[92.565,25.466],[92.653,25.591],[92.572,25.557],[92.384,25.755],[92.156,25.672],[92.225,25.909],[92.152,25.944],[92.275,26.066],[91.919,25.998],[91.866,26.101]]]}},{"type":"Feature","properties":{"name":"Mizoram"},"geometry":{"type":"Polygon","coordinates":[[[92.797,24.433],[92.763,24.521],[92.464,24.136],[92.422,24.255],[92.292,24.25],[92.325,23.914],[92.257,23.813],[92.403,23.241],[92.346,23.237],[92.371,22.936],[92.529,22.666],[92.603,21.977],[92.68,22.012],[92.7,22.155],[92.863,22.063],[92.906,21.941],[92.951,22.03],[93.001,21.978],[93.038,22.195],[93.151,22.176],[93.202,22.264],[93.106,22.527],[93.12,23.002],[93.136,23.061],[93.294,23.007],[93.385,23.135],[93.436,23.687],[93.338,24.04],[92.973,24.113],[93.025,24.391],[92.829,24.374],[92.797,24.433]]]}},{"type":"Feature","properties":{"name":"Nagaland"},"geometry":{"type":"Polygon","coordinates":[[[95.195,27.031],[94.46,26.662],[94.316,26.458],[94.256,26.541],[94.001,26.172],[93.979,25.917],[93.795,25.809],[93.765,25.97],[93.681,25.904],[93.714,25.845],[93.327,25.547],[93.458,25.431],[93.501,25.242],[93.605,25.199],[93.834,25.561],[94.013,25.593],[94.322,25.503],[94.572,25.692],[94.554,25.503],[94.616,25.462],[94.898,25.566],[95.049,25.76],[95.012,25.898],[95.186,26.073],[95.118,26.101],[95.132,26.378],[95.062,26.45],[95.234,26.682],[95.195,27.031]]]}},{"type":"Feature","properties":{"name":"Punjab"},"geometry":{"type":"Polygon","coordinates":[[[75.844,32.509],[75.533,32.278],[75.341,32.346],[75.372,32.226],[75.24,32.091],[74.879,32.054],[74.819,31.959],[74.608,31.89],[74.487,31.715],[74.655,31.426],[74.526,31.312],[74.51,31.132],[74.696,31.074],[74.416,30.94],[74.072,30.523],[73.935,30.49],[73.974,30.444],[73.88,30.36],[73.975,30.12],[73.895,29.974],[74.629,29.905],[74.812,29.992],[74.991,29.868],[75.099,29.913],[75.101,29.807],[75.191,29.841],[75.242,29.755],[75.168,29.67],[75.235,29.542],[75.46,29.808],[75.58,29.739],[75.779,29.822],[76.043,29.743],[76.244,29.852],[76.172,29.926],[76.253,30.089],[76.208,30.157],[76.322,30.095],[76.423,30.192],[76.546,30.076],[76.656,30.185],[76.557,30.262],[76.746,30.35],[76.741,30.426],[76.936,30.385],[76.926,30.61],[76.707,30.741],[76.857,30.795],[76.625,30.999],[76.642,31.223],[76.44,31.279],[76.375,31.437],[76.323,31.322],[76.18,31.307],[75.91,31.95],[75.595,32.07],[75.673,32.159],[75.618,32.237],[75.935,32.393],[75.844,32.509]]]}},{"type":"Feature","properties":{"name":"Rajasthan"},"geometry":{"type":"Polygon","coordinates":[[[73.975,30.12],[73.973,30.198],[73.806,30.068],[73.397,29.946],[73.282,29.572],[72.945,29.028],[72.392,28.772],[72.206,28.394],[71.928,28.122],[71.898,27.962],[70.872,27.706],[70.739,27.742],[70.589,28.01],[70.372,28.012],[70.132,27.806],[70.026,27.563],[69.587,27.184],[69.484,26.805],[69.792,26.598],[70.174,26.551],[70.1,25.938],[70.268,25.714],[70.66,25.702],[70.665,25.397],[70.888,25.148],[71.112,24.676],[71.288,24.616],[71.792,24.677],[71.852,24.609],[71.872,24.682],[71.94,24.634],[72.061,24.712],[72.165,24.621],[72.347,24.628],[72.246,24.585],[72.441,24.515],[72.457,24.415],[72.539,24.52],[72.731,24.364],[72.911,24.337],[72.991,24.478],[73.087,24.498],[73.077,24.397],[73.219,24.364],[73.067,24.195],[73.243,24.002],[73.362,24.105],[73.421,23.931],[73.352,23.791],[73.507,23.703],[73.503,23.618],[73.656,23.621],[73.627,23.448],[73.829,23.448],[73.892,23.334],[73.962,23.381],[74.324,23.061],[74.742,23.208],[74.514,23.328],[74.604,23.457],[74.937,23.629],[74.902,23.873],[74.982,24.026],[74.897,24.227],[74.747,24.253],[74.854,24.444],[74.709,24.486],[74.814,24.65],[74.8,24.779],[74.889,24.634],[75.016,24.732],[74.849,24.776],[74.843,24.969],[75.034,24.845],[75.117,24.878],[75.166,25.048],[75.334,25.041],[75.263,24.875],[75.426,24.869],[75.311,24.801],[75.224,24.844],[75.219,24.702],[75.836,24.728],[75.909,24.455],[75.839,24.414],[75.789,24.472],[75.728,24.39],[75.83,24.233],[75.751,24.143],[75.837,24.057],[75.718,23.967],[75.474,23.982],[75.584,23.795],[75.687,23.755],[75.706,23.899],[75.782,23.849],[75.981,23.929],[75.963,24.019],[76.127,24.088],[76.185,24.329],[76.212,24.21],[76.471,24.226],[76.528,24.157],[76.695,24.284],[76.699,24.168],[76.901,24.127],[76.946,24.206],[76.841,24.323],[76.816,24.534],[76.918,24.543],[76.978,24.461],[77.071,24.572],[77.031,24.712],[76.803,24.809],[76.95,24.869],[76.857,25.002],[77.407,25.112],[77.371,25.408],[77.291,25.423],[77.209,25.306],[76.943,25.282],[76.669,25.349],[76.473,25.709],[76.582,25.87],[76.791,25.943],[77.031,26.172],[77.824,26.55],[77.904,26.659],[78.09,26.674],[78.107,26.791],[78.184,26.784],[78.272,26.919],[78.119,26.947],[78.026,26.85],[77.761,26.933],[77.501,26.844],[77.455,26.742],[77.427,26.864],[77.76,27.018],[77.519,27.067],[77.681,27.194],[77.623,27.336],[77.44,27.39],[77.34,27.527],[77.301,27.795],[77.045,27.822],[77.086,27.738],[76.906,27.662],[76.971,28.138],[76.808,28.211],[76.548,27.964],[76.544,28.034],[76.455,28.042],[76.476,28.149],[76.292,28.179],[76.342,28.031],[76.18,28.055],[76.158,27.989],[76.217,27.817],[75.971,27.852],[75.932,27.93],[76.041,28.074],[75.946,28.107],[76.095,28.151],[75.918,28.372],[75.777,28.4],[75.561,28.613],[75.473,28.923],[75.522,29.004],[75.371,29.138],[75.41,29.256],[75.076,29.23],[74.851,29.404],[74.599,29.327],[74.535,29.448],[74.622,29.522],[74.616,29.752],[74.474,29.768],[74.561,29.87],[74.527,29.943],[73.895,29.974],[73.975,30.12]]]}},{"type":"Feature","properties":{"name":"Sikkim"},"geometry":{"type":"Polygon","coordinates":[[[88.633,28.121],[88.399,27.978],[88.129,27.949],[88.198,27.791],[88.044,27.496],[88.014,27.218],[88.096,27.133],[88.431,27.079],[88.541,27.182],[88.735,27.135],[88.904,27.273],[88.764,27.565],[88.883,27.891],[88.836,28.015],[88.633,28.121]]]}},{"type":"Feature","properties":{"name":"Tripura"},"geometry":{"type":"Polygon","coordinates":[[[92.169,24.527],[92.163,24.419],[91.922,24.338],[91.918,24.116],[91.747,24.245],[91.757,24.143],[91.662,24.232],[91.581,24.074],[91.376,24.106],[91.379,23.975],[91.28,23.982],[91.227,23.753],[91.157,23.742],[91.214,23.66],[91.157,23.67],[91.16,23.596],[91.323,23.363],[91.347,23.102],[91.417,23.065],[91.415,23.283],[91.62,22.939],[91.835,23.093],[91.76,23.283],[91.842,23.389],[91.801,23.518],[91.864,23.408],[91.948,23.435],[91.958,23.739],[92.038,23.648],[92.135,23.735],[92.23,23.655],[92.315,23.861],[92.332,24.18],[92.192,24.243],[92.257,24.399],[92.169,24.527]]]}},{"type":"Feature","properties":{"name":"Uttarakhand"},"geometry":{"type":"Polygon","coordinates":[[[79.083,31.446],[78.882,31.287],[79.009,31.11],[78.885,31.099],[78.81,31.198],[78.484,31.199],[78.37,31.286],[77.899,31.15],[77.811,31.059],[77.838,30.953],[77.749,30.954],[77.806,30.853],[77.758,30.877],[77.702,30.746],[77.828,30.531],[77.573,30.412],[77.962,30.242],[77.801,30.096],[77.714,29.87],[77.799,29.686],[77.953,29.707],[77.964,29.581],[78.336,29.797],[78.489,29.738],[78.618,29.558],[78.942,29.439],[78.719,29.307],[78.874,29.23],[78.907,29.125],[79.127,29.133],[79.171,29.012],[79.372,28.988],[79.44,28.862],[79.829,28.885],[79.808,28.801],[79.888,28.837],[79.954,28.723],[80.062,28.783],[80.145,29.103],[80.298,29.205],[80.242,29.443],[80.409,29.598],[80.368,29.749],[80.744,30.004],[80.907,30.223],[81.045,30.211],[80.607,30.472],[80.213,30.584],[80.236,30.759],[79.865,30.973],[79.601,30.933],[79.426,31.024],[79.083,31.446]]]}},{"type":"Feature","properties":{"name":"Telangana"},"geometry":{"type":"Polygon","coordinates":[[[78.329,19.916],[78.286,19.848],[78.365,19.781],[78.263,19.665],[78.304,19.456],[78.176,19.412],[78.151,19.229],[77.945,19.342],[77.863,19.304],[77.85,19.089],[77.762,19.033],[77.949,18.83],[77.754,18.701],[77.739,18.557],[77.596,18.549],[77.528,18.442],[77.605,18.281],[77.554,18.036],[77.656,17.968],[77.443,17.584],[77.693,17.499],[77.513,17.431],[77.38,17.223],[77.503,17.014],[77.419,16.669],[77.467,16.599],[77.236,16.473],[77.595,16.342],[77.49,16.255],[77.513,15.927],[78.032,15.907],[78.099,15.836],[78.252,15.935],[78.261,16.026],[78.627,16.088],[78.736,16.008],[79.01,16.24],[79.217,16.227],[79.257,16.566],[79.774,16.731],[79.963,16.644],[80.071,16.802],[80.017,16.915],[80.196,17.044],[80.38,16.817],[80.57,16.768],[80.602,16.919],[80.363,16.976],[80.409,17.092],[80.465,17.03],[80.58,17.153],[80.845,17.04],[80.919,17.22],[81.174,17.23],[81.19,17.325],[81.323,17.375],[81.127,17.526],[80.855,17.602],[80.886,17.736],[81.104,17.772],[81.008,17.798],[80.979,18.179],[80.867,18.14],[80.837,18.242],[80.737,18.177],[80.794,18.259],[80.735,18.413],[80.515,18.619],[80.346,18.595],[80.273,18.723],[80.118,18.681],[79.921,18.811],[79.94,19.033],[79.858,19.102],[79.946,19.17],[79.98,19.389],[79.915,19.496],[79.743,19.609],[79.471,19.5],[79.244,19.617],[79.19,19.459],[78.94,19.552],[78.956,19.656],[78.852,19.658],[78.841,19.762],[78.49,19.793],[78.329,19.916]]]}},{"type":"Feature","properties":{"name":"Andaman & Nicobar"},"geometry":{"type":"Polygon","coordinates":[[[93.837,7.24],[93.645,7.127],[93.824,6.754],[93.943,6.999],[93.837,7.24]],[[93.7,7.446],[93.621,7.373],[93.636,7.244],[93.743,7.362],[93.7,7.446]],[[93.512,8.235],[93.445,8.168],[93.475,8.053],[93.525,8.082],[93.491,8.0],[93.512,8.235]],[[92.792,9.239],[92.72,9.219],[92.728,9.127],[92.826,9.14],[92.792,9.239]],[[92.521,10.898],[92.378,10.783],[92.389,10.533],[92.569,10.578],[92.521,10.898]],[[92.696,12.239],[92.614,11.831],[92.562,11.947],[92.514,11.848],[92.71,11.478],[92.755,11.665],[92.661,11.654],[92.754,11.701],[92.791,11.886],[92.745,11.932],[92.711,11.821],[92.727,12.045],[92.782,12.048],[92.696,12.239]],[[92.81,12.313],[92.741,12.246],[92.763,12.064],[92.884,12.198],[92.81,12.313]],[[92.901,12.911],[92.79,12.89],[92.783,12.763],[92.722,12.826],[92.732,12.675],[92.781,12.735],[92.799,12.661],[92.779,12.58],[92.773,12.671],[92.684,12.609],[92.719,12.3],[92.899,12.334],[92.786,12.484],[92.91,12.406],[92.968,12.497],[92.901,12.911]],[[93.03,13.568],[92.871,13.472],[92.924,13.385],[92.842,13.403],[92.863,13.185],[92.831,13.243],[92.788,13.02],[92.841,12.877],[92.842,12.957],[92.937,12.975],[92.843,13.051],[92.912,13.067],[92.875,13.136],[92.959,13.016],[93.029,13.067],[93.064,13.272],[92.945,13.351],[93.067,13.397],[92.989,13.428],[93.03,13.568]]]}},{"type":"Feature","properties":{"name":"Bihar"},"geometry":{"type":"Polygon","coordinates":[[[84.117,27.52],[84.016,27.437],[83.848,27.449],[83.837,27.322],[83.934,27.309],[83.994,27.174],[83.947,27.09],[84.031,27.097],[84.06,26.888],[84.254,26.857],[84.241,26.739],[84.42,26.627],[84.087,26.639],[83.908,26.447],[84.177,26.371],[84.166,26.241],[84.012,26.232],[84.056,26.1],[84.17,25.988],[84.534,25.876],[84.635,25.728],[84.499,25.675],[84.337,25.744],[84.276,25.659],[84.104,25.721],[83.846,25.434],[83.357,25.2],[83.32,25.017],[83.393,24.783],[83.548,24.623],[83.503,24.525],[83.873,24.532],[84.008,24.643],[84.108,24.477],[84.297,24.56],[84.297,24.449],[84.496,24.286],[84.568,24.409],[84.665,24.391],[84.802,24.531],[84.904,24.372],[85.08,24.433],[85.089,24.372],[85.371,24.555],[85.668,24.579],[85.737,24.821],[85.945,24.733],[86.055,24.78],[86.132,24.603],[86.323,24.587],[86.276,24.466],[86.445,24.368],[86.603,24.608],[86.916,24.545],[86.94,24.653],[87.051,24.609],[87.146,25.019],[87.296,25.089],[87.328,25.224],[87.478,25.194],[87.487,25.297],[87.584,25.349],[87.818,25.242],[87.787,25.449],[87.927,25.539],[88.073,25.484],[88.05,25.702],[87.809,25.913],[87.975,26.143],[88.3,26.35],[88.183,26.504],[88.233,26.571],[88.098,26.548],[88.019,26.364],[87.888,26.487],[87.605,26.381],[87.464,26.44],[87.34,26.348],[87.091,26.451],[87.071,26.587],[86.73,26.422],[86.333,26.619],[86.027,26.666],[85.85,26.568],[85.635,26.872],[85.212,26.758],[85.191,26.87],[85.023,26.855],[84.962,26.961],[84.643,27.046],[84.691,27.215],[84.62,27.339],[84.294,27.382],[84.117,27.52]]]}},{"type":"Feature","properties":{"name":"Gujarat"},"geometry":{"type":"Polygon","coordinates":[[[72.362,22.029],[72.293,21.967],[72.354,21.797],[72.445,21.963],[72.362,22.029]],[[72.061,24.712],[71.94,24.634],[71.872,24.682],[71.852,24.609],[71.792,24.677],[71.288,24.616],[71.097,24.689],[70.987,24.543],[70.998,24.444],[71.122,24.406],[70.806,24.221],[70.571,24.251],[70.573,24.422],[70.11,24.295],[70.025,24.171],[69.732,24.171],[69.594,24.293],[69.003,24.223],[68.946,24.303],[68.865,24.213],[68.808,24.314],[68.753,23.971],[68.358,23.98],[68.208,23.875],[68.099,23.644],[68.299,23.593],[68.326,23.496],[68.48,23.518],[68.4,23.42],[68.581,23.371],[68.621,23.328],[68.54,23.248],[68.634,23.3],[68.584,23.224],[68.759,23.08],[69.196,22.838],[69.472,22.774],[69.418,22.812],[69.682,22.8],[70.08,22.92],[70.036,22.953],[70.312,23.215],[70.712,23.214],[70.541,22.96],[70.432,22.967],[70.519,22.935],[70.462,22.84],[70.383,22.795],[70.427,22.904],[70.376,22.908],[70.125,22.553],[69.963,22.537],[69.871,22.428],[69.765,22.475],[69.754,22.416],[69.731,22.484],[69.655,22.359],[69.333,22.328],[69.157,22.195],[69.195,22.422],[69.04,22.388],[69.068,22.481],[68.937,22.305],[70.092,21.113],[70.447,20.848],[70.822,20.692],[71.437,20.869],[72.112,21.199],[72.309,21.625],[72.162,21.807],[72.242,21.824],[72.225,22.057],[72.373,22.316],[72.427,22.21],[72.516,22.321],[72.756,22.232],[72.945,22.304],[72.758,22.174],[72.58,22.197],[72.508,21.934],[72.558,21.879],[72.667,21.956],[72.528,21.678],[72.807,21.658],[72.612,21.585],[72.737,21.539],[72.598,21.305],[72.624,21.091],[72.755,21.052],[72.904,20.576],[72.897,20.38],[72.776,20.334],[72.737,20.135],[72.964,20.21],[72.917,20.281],[73.097,20.36],[73.167,20.288],[73.06,20.162],[73.169,20.208],[73.25,20.123],[73.299,20.209],[73.421,20.206],[73.38,20.393],[73.494,20.538],[73.392,20.646],[73.45,20.718],[73.745,20.565],[73.942,20.742],[73.901,20.982],[73.577,21.171],[73.816,21.174],[73.823,21.271],[73.942,21.299],[73.939,21.405],[74.321,21.498],[74.303,21.567],[74.158,21.569],[73.853,21.497],[73.78,21.628],[73.894,21.676],[73.796,21.825],[74.144,21.948],[74.092,22.015],[74.179,22.085],[74.065,22.354],[74.19,22.32],[74.291,22.394],[74.191,22.476],[74.119,22.419],[74.041,22.542],[74.379,22.635],[74.477,22.855],[74.34,22.953],[74.247,23.184],[74.128,23.176],[74.107,23.294],[73.962,23.381],[73.892,23.334],[73.829,23.448],[73.627,23.448],[73.656,23.621],[73.503,23.618],[73.507,23.703],[73.352,23.791],[73.421,23.931],[73.362,24.105],[73.243,24.002],[73.067,24.195],[73.219,24.364],[73.077,24.397],[73.087,24.498],[72.991,24.478],[72.911,24.337],[72.731,24.364],[72.539,24.52],[72.457,24.415],[72.441,24.515],[72.246,24.585],[72.347,24.628],[72.165,24.621],[72.061,24.712]]]}},{"type":"Feature","properties":{"name":"Kerala"},"geometry":{"type":"Polygon","coordinates":[[[74.998,12.786],[74.868,12.751],[75.201,12.006],[75.544,11.705],[75.834,11.105],[76.542,8.913],[76.986,8.376],[77.173,8.319],[77.201,8.501],[77.284,8.547],[77.17,8.742],[77.258,8.875],[77.147,9.021],[77.412,9.509],[77.361,9.602],[77.166,9.613],[77.273,9.964],[77.201,10.107],[77.295,10.219],[77.235,10.353],[76.984,10.22],[76.83,10.303],[76.81,10.624],[76.882,10.639],[76.907,10.783],[76.659,10.931],[76.801,11.054],[76.7,11.154],[76.735,11.218],[76.458,11.188],[76.548,11.359],[76.247,11.468],[76.234,11.571],[76.444,11.647],[76.414,11.76],[76.12,11.85],[76.112,11.979],[75.87,11.952],[75.803,12.08],[75.577,12.157],[75.415,12.288],[75.366,12.457],[75.417,12.499],[75.336,12.464],[75.269,12.56],[75.326,12.594],[75.22,12.568],[75.152,12.682],[75.047,12.667],[74.998,12.786]]]}},{"type":"Feature","properties":{"name":"Madhya Pradesh"},"geometry":{"type":"Polygon","coordinates":[[[78.361,26.869],[78.116,26.797],[78.09,26.674],[77.904,26.659],[77.824,26.55],[76.901,26.093],[76.473,25.709],[76.669,25.349],[76.943,25.282],[77.209,25.306],[77.291,25.423],[77.371,25.408],[77.407,25.112],[76.857,25.002],[76.95,24.869],[76.803,24.809],[77.031,24.712],[77.071,24.572],[76.978,24.461],[76.918,24.543],[76.816,24.534],[76.841,24.323],[76.946,24.206],[76.901,24.127],[76.699,24.168],[76.695,24.284],[76.528,24.157],[76.471,24.226],[76.212,24.21],[76.185,24.329],[76.127,24.088],[75.963,24.019],[75.981,23.929],[75.782,23.849],[75.706,23.899],[75.687,23.755],[75.584,23.795],[75.474,23.982],[75.718,23.967],[75.837,24.057],[75.751,24.143],[75.83,24.233],[75.728,24.39],[75.789,24.472],[75.839,24.414],[75.909,24.455],[75.836,24.728],[75.219,24.702],[75.224,24.844],[75.311,24.801],[75.426,24.869],[75.263,24.875],[75.334,25.041],[75.166,25.048],[75.117,24.878],[75.034,24.845],[74.834,24.96],[74.849,24.776],[75.016,24.732],[74.889,24.634],[74.8,24.779],[74.814,24.65],[74.709,24.486],[74.854,24.444],[74.747,24.253],[74.897,24.227],[74.982,24.026],[74.902,23.873],[74.937,23.629],[74.604,23.457],[74.514,23.328],[74.742,23.208],[74.319,23.059],[74.477,22.855],[74.379,22.635],[74.041,22.542],[74.119,22.419],[74.191,22.476],[74.291,22.394],[74.19,22.32],[74.065,22.354],[74.179,22.085],[74.092,22.015],[74.142,21.956],[74.281,21.933],[74.432,22.03],[74.554,21.681],[74.902,21.629],[75.217,21.409],[76.096,21.371],[76.167,21.079],[76.376,21.073],[76.492,21.194],[76.623,21.185],[76.621,21.332],[76.786,21.465],[76.795,21.594],[77.29,21.76],[77.479,21.77],[77.544,21.704],[77.612,21.539],[77.426,21.538],[77.489,21.374],[77.941,21.386],[78.387,21.615],[78.451,21.497],[78.937,21.486],[78.914,21.589],[79.224,21.649],[79.231,21.722],[79.496,21.674],[79.541,21.543],[79.738,21.604],[79.891,21.518],[80.253,21.625],[80.412,21.377],[80.671,21.338],[80.726,21.714],[80.82,21.748],[80.908,22.11],[81.005,22.062],[81.111,22.438],[81.327,22.526],[81.407,22.441],[81.622,22.538],[81.769,22.664],[81.776,22.874],[81.946,22.957],[81.942,23.079],[82.161,23.143],[82.194,23.324],[81.985,23.415],[81.923,23.533],[81.747,23.57],[81.627,23.482],[81.577,23.585],[81.696,23.721],[81.609,23.903],[81.815,23.806],[81.92,23.871],[82.497,23.785],[82.635,23.838],[82.81,23.963],[82.664,24.128],[82.728,24.136],[82.773,24.308],[82.719,24.552],[82.803,24.598],[82.671,24.697],[82.539,24.648],[82.43,24.703],[82.416,24.591],[82.298,24.605],[82.251,24.77],[82.177,24.732],[82.204,24.819],[81.965,24.827],[81.907,25.006],[81.612,25.056],[81.579,25.191],[81.491,25.072],[81.275,25.164],[81.22,24.929],[81.14,24.888],[80.947,24.966],[80.812,24.923],[80.885,25.188],[80.83,25.1],[80.704,25.128],[80.776,25.055],[80.68,25.049],[80.601,25.15],[80.613,25.066],[80.483,25.1],[80.55,25.002],[80.437,24.995],[80.502,25.037],[80.45,25.079],[80.331,24.992],[80.285,25.054],[80.432,25.178],[80.264,25.424],[79.851,25.236],[79.862,25.096],[79.569,25.172],[79.5,25.083],[79.405,25.106],[79.495,25.267],[79.3,25.338],[79.264,25.269],[79.352,25.212],[79.279,25.245],[79.283,25.117],[79.124,25.111],[79.091,25.191],[79.029,25.141],[79.013,25.274],[79.006,25.195],[78.88,25.158],[78.961,25.345],[78.882,25.344],[78.85,25.229],[78.788,25.296],[78.88,25.386],[78.989,25.374],[78.895,25.555],[78.844,25.428],[78.738,25.495],[78.821,25.423],[78.748,25.41],[78.775,25.353],[78.658,25.441],[78.435,25.284],[78.578,25.253],[78.632,24.958],[78.79,24.811],[78.752,24.6],[78.883,24.641],[78.971,24.348],[78.806,24.178],[78.519,24.388],[78.388,24.263],[78.226,24.52],[78.277,24.663],[78.169,24.863],[78.447,25.122],[78.305,25.377],[78.444,25.563],[78.812,25.621],[78.753,25.751],[79.012,26.083],[78.949,26.129],[79.027,26.191],[78.989,26.235],[79.139,26.338],[79.007,26.671],[78.722,26.796],[78.576,26.749],[78.361,26.869]]]}},{"type":"Feature","properties":{"name":"Odisha"},"geometry":{"type":"Polygon","coordinates":[[[86.805,20.733],[86.972,20.794],[86.841,21.158],[86.945,21.353],[87.148,21.509],[87.484,21.603],[87.444,21.768],[87.277,21.805],[87.236,21.957],[87.038,21.868],[86.96,22.088],[86.722,22.147],[86.647,22.268],[86.497,22.347],[86.433,22.306],[86.045,22.568],[85.957,22.465],[86.031,22.19],[85.908,21.971],[85.766,21.995],[85.81,22.116],[85.685,22.055],[85.371,22.161],[85.237,22.009],[85.098,22.106],[84.991,22.081],[85.117,22.294],[85.067,22.484],[84.291,22.343],[83.982,22.523],[84.047,22.469],[84.01,22.372],[83.666,22.233],[83.564,22.105],[83.591,21.851],[83.469,21.787],[83.418,21.68],[83.49,21.631],[83.383,21.62],[83.338,21.502],[83.407,21.352],[83.269,21.379],[83.271,21.272],[83.131,21.106],[82.965,21.193],[82.64,21.155],[82.465,20.828],[82.351,20.89],[82.332,20.562],[82.438,20.434],[82.399,20.057],[82.715,19.995],[82.707,19.835],[82.592,19.776],[82.603,19.867],[82.446,19.91],[82.345,19.836],[82.237,20.004],[82.033,20.016],[81.946,20.105],[81.871,20.044],[81.853,19.918],[82.066,19.791],[82.029,19.508],[82.189,19.428],[82.166,19.133],[82.246,18.919],[82.085,18.719],[81.894,18.657],[81.964,18.59],[81.75,18.354],[81.525,18.258],[81.392,17.815],[81.617,17.823],[82.031,18.07],[82.265,17.996],[82.371,18.149],[82.309,18.205],[82.391,18.299],[82.363,18.422],[82.481,18.549],[82.636,18.237],[82.801,18.45],[83.053,18.381],[83.019,18.457],[83.093,18.548],[83.011,18.647],[83.137,18.786],[83.211,18.732],[83.404,18.843],[83.309,19.0],[83.46,18.956],[83.466,19.094],[83.535,19.012],[83.624,19.164],[83.891,18.815],[84.319,18.788],[84.337,18.89],[84.436,18.922],[84.419,19.023],[84.599,19.026],[84.668,19.075],[84.593,19.133],[84.669,19.167],[84.765,19.077],[85.307,19.562],[86.409,19.971],[86.524,20.173],[86.783,20.33],[86.797,20.493],[86.786,20.384],[86.71,20.396],[86.752,20.518],[87.056,20.715],[87.022,20.77],[86.805,20.733]]]}},{"type":"Feature","properties":{"name":"Tamil Nadu"},"geometry":{"type":"Polygon","coordinates":[[[80.326,13.445],[80.268,13.564],[80.242,13.471],[80.017,13.547],[79.938,13.356],[79.734,13.289],[79.76,13.207],[79.435,13.352],[79.382,13.308],[79.445,13.301],[79.438,13.188],[79.307,13.106],[79.235,13.171],[79.163,13.02],[78.714,13.069],[78.465,12.624],[78.211,12.686],[78.231,12.761],[78.053,12.854],[78.01,12.806],[77.929,12.891],[77.836,12.87],[77.74,12.673],[77.599,12.667],[77.617,12.368],[77.471,12.244],[77.774,12.121],[77.676,11.952],[77.494,11.943],[77.427,11.761],[77.25,11.813],[77.118,11.721],[77.013,11.815],[76.908,11.795],[76.847,11.595],[76.577,11.615],[76.512,11.705],[76.234,11.571],[76.247,11.468],[76.548,11.359],[76.439,11.199],[76.735,11.218],[76.7,11.154],[76.801,11.054],[76.659,10.931],[76.907,10.783],[76.882,10.639],[76.81,10.624],[76.83,10.303],[76.984,10.22],[77.235,10.353],[77.295,10.219],[77.201,10.107],[77.273,9.964],[77.166,9.613],[77.361,9.602],[77.412,9.509],[77.147,9.021],[77.258,8.875],[77.17,8.742],[77.284,8.547],[77.098,8.292],[77.316,8.122],[77.555,8.077],[77.605,8.147],[77.758,8.145],[78.067,8.375],[78.19,8.928],[78.407,9.11],[78.965,9.274],[79.209,9.282],[79.433,9.161],[79.329,9.32],[79.067,9.298],[78.898,9.49],[79.266,10.039],[79.228,10.147],[79.297,10.262],[79.881,10.306],[79.853,10.827],[79.719,10.968],[79.854,10.983],[79.843,11.351],[79.757,11.558],[79.796,11.785],[79.712,11.792],[79.808,11.847],[79.674,11.892],[79.748,12.008],[79.75,11.92],[79.841,11.956],[80.154,12.448],[80.326,13.445]]]}},{"type":"Feature","properties":{"name":"Uttar Pradesh"},"geometry":{"type":"Polygon","coordinates":[[[77.602,30.4],[77.423,30.103],[77.186,29.908],[77.084,29.587],[77.157,29.387],[77.134,29.096],[77.233,28.919],[77.199,28.798],[77.331,28.713],[77.297,28.566],[77.478,28.419],[77.55,28.242],[77.474,28.087],[77.529,27.926],[77.284,27.801],[77.317,27.607],[77.44,27.39],[77.623,27.336],[77.681,27.194],[77.519,27.067],[77.763,27.007],[77.398,26.83],[77.455,26.742],[77.501,26.844],[77.761,26.933],[78.026,26.85],[78.225,26.946],[78.268,26.813],[78.361,26.869],[78.576,26.749],[78.722,26.796],[79.007,26.671],[79.053,26.454],[79.135,26.44],[79.119,26.3],[78.989,26.235],[78.939,25.943],[78.753,25.751],[78.812,25.621],[78.444,25.563],[78.305,25.377],[78.447,25.122],[78.169,24.863],[78.348,24.299],[78.414,24.273],[78.519,24.388],[78.806,24.178],[78.971,24.348],[78.883,24.641],[78.752,24.6],[78.79,24.811],[78.632,24.958],[78.578,25.253],[78.435,25.284],[78.658,25.441],[78.775,25.353],[78.748,25.41],[78.821,25.423],[78.738,25.495],[78.844,25.428],[78.835,25.506],[78.939,25.557],[78.909,25.442],[78.989,25.374],[78.88,25.386],[78.788,25.296],[78.85,25.229],[78.882,25.344],[78.961,25.345],[78.88,25.158],[79.006,25.195],[79.013,25.274],[79.029,25.141],[79.091,25.191],[79.131,25.109],[79.314,25.136],[79.3,25.338],[79.495,25.267],[79.405,25.106],[79.5,25.083],[79.569,25.172],[79.862,25.096],[79.851,25.236],[80.264,25.424],[80.432,25.178],[80.274,25.026],[80.387,25.004],[80.45,25.079],[80.479,24.974],[80.55,25.002],[80.483,25.1],[80.613,25.066],[80.607,25.15],[80.68,25.049],[80.776,25.055],[80.704,25.128],[80.83,25.1],[80.885,25.188],[80.812,24.923],[80.947,24.966],[81.14,24.888],[81.22,24.929],[81.275,25.164],[81.491,25.072],[81.579,25.191],[81.612,25.056],[81.907,25.006],[81.965,24.827],[82.204,24.819],[82.177,24.732],[82.251,24.77],[82.298,24.605],[82.416,24.591],[82.43,24.703],[82.774,24.642],[82.744,24.166],[82.664,24.128],[82.948,23.871],[83.208,23.921],[83.457,24.365],[83.397,24.496],[83.548,24.623],[83.358,24.871],[83.357,25.2],[83.846,25.434],[84.104,25.721],[84.276,25.659],[84.337,25.744],[84.499,25.675],[84.635,25.728],[84.534,25.876],[84.17,25.988],[84.009,26.175],[84.019,26.239],[84.166,26.241],[84.177,26.371],[83.908,26.447],[83.908,26.519],[84.048,26.536],[84.087,26.639],[84.42,26.627],[84.241,26.739],[84.254,26.857],[84.06,26.888],[83.925,27.322],[83.615,27.469],[83.388,27.479],[83.318,27.331],[83.188,27.454],[82.735,27.503],[82.708,27.723],[82.449,27.68],[82.07,27.923],[81.885,27.857],[81.426,28.171],[81.317,28.134],[81.211,28.361],[80.59,28.68],[80.506,28.671],[80.515,28.553],[80.119,28.828],[79.954,28.723],[79.888,28.837],[79.808,28.801],[79.829,28.885],[79.425,28.868],[79.372,28.988],[79.171,29.012],[79.127,29.133],[78.907,29.125],[78.874,29.23],[78.719,29.307],[78.942,29.439],[78.618,29.558],[78.489,29.738],[78.336,29.797],[78.022,29.581],[77.933,29.601],[77.946,29.713],[77.799,29.686],[77.733,29.956],[77.962,30.242],[77.602,30.4]]]}},{"type":"Feature","properties":{"name":"West Bengal"},"geometry":{"type":"Polygon","coordinates":[[[88.555,21.761],[88.544,21.811],[88.508,21.747],[88.597,21.658],[88.555,21.761]],[[88.777,21.869],[88.716,21.905],[88.691,21.751],[88.795,21.653],[88.777,21.869]],[[88.065,27.213],[87.992,27.108],[88.133,26.982],[88.187,26.771],[88.105,26.551],[88.233,26.571],[88.183,26.504],[88.3,26.35],[87.975,26.143],[87.814,25.932],[87.904,25.773],[88.05,25.702],[88.077,25.507],[87.884,25.521],[87.767,25.415],[87.847,25.265],[87.711,25.258],[87.962,24.938],[87.818,24.761],[87.908,24.721],[87.909,24.586],[87.772,24.584],[87.81,24.405],[87.639,24.255],[87.695,24.149],[87.498,24.118],[87.46,23.984],[87.245,24.045],[87.295,23.902],[87.241,23.826],[86.805,23.838],[86.799,23.689],[86.462,23.63],[86.31,23.412],[86.042,23.586],[86.054,23.487],[85.876,23.481],[85.82,23.268],[86.186,23.005],[86.548,22.989],[86.436,22.926],[86.419,22.791],[86.635,22.666],[86.659,22.576],[86.766,22.576],[86.751,22.456],[86.888,22.297],[86.722,22.147],[87.028,22.038],[87.038,21.868],[87.236,21.957],[87.277,21.805],[87.444,21.768],[87.486,21.61],[87.806,21.709],[87.987,21.871],[88.049,21.997],[87.993,22.076],[88.06,22.018],[88.167,22.078],[88.136,22.185],[87.998,22.247],[88.177,22.191],[88.222,22.073],[88.146,21.955],[88.26,21.557],[88.261,21.962],[88.312,21.86],[88.351,21.971],[88.382,21.795],[88.388,22.004],[88.391,21.897],[88.446,21.988],[88.471,21.901],[88.554,22.051],[88.496,21.879],[88.594,21.896],[88.65,22.249],[88.682,21.945],[88.768,22.147],[88.703,22.073],[88.783,22.109],[88.746,21.99],[88.817,21.968],[88.763,21.955],[88.901,21.931],[88.896,22.074],[88.921,21.984],[88.982,22.11],[88.93,21.953],[89.008,21.903],[89.096,22.16],[88.985,22.326],[88.912,22.759],[88.97,22.844],[88.846,23.009],[88.994,23.214],[88.719,23.255],[88.8,23.496],[88.558,23.649],[88.575,23.861],[88.769,23.983],[88.694,24.112],[88.735,24.276],[88.19,24.476],[88.024,24.688],[88.174,24.861],[88.137,24.936],[88.226,24.96],[88.328,24.871],[88.398,24.946],[88.442,25.199],[88.921,25.165],[89.008,25.302],[88.84,25.363],[88.811,25.523],[88.54,25.509],[88.261,25.814],[88.115,25.799],[88.087,25.917],[88.177,26.148],[88.522,26.361],[88.484,26.461],[88.333,26.479],[88.412,26.631],[88.434,26.542],[88.744,26.347],[88.665,26.258],[88.793,26.31],[88.843,26.231],[88.898,26.289],[89.051,26.241],[88.91,26.37],[88.966,26.458],[89.096,26.391],[89.155,26.139],[89.559,25.965],[89.65,26.063],[89.594,26.102],[89.634,26.229],[89.737,26.172],[89.72,26.307],[89.856,26.384],[89.874,26.584],[89.852,26.697],[89.62,26.716],[89.64,26.777],[89.548,26.813],[89.127,26.807],[88.917,26.998],[88.87,26.945],[88.866,27.109],[88.799,27.139],[88.541,27.182],[88.431,27.079],[88.137,27.116],[88.065,27.213]]]}},{"type":"Feature","properties":{"name":"Andhra Pradesh"},"geometry":{"type":"Polygon","coordinates":[[[84.676,19.168],[84.593,19.133],[84.668,19.075],[84.599,19.026],[84.419,19.023],[84.342,18.803],[84.089,18.758],[83.891,18.815],[83.793,19.019],[83.753,18.926],[83.624,19.164],[83.535,19.012],[83.466,19.094],[83.46,18.956],[83.309,19.0],[83.404,18.843],[83.211,18.732],[83.137,18.786],[83.011,18.647],[83.093,18.548],[83.019,18.457],[83.053,18.381],[82.801,18.45],[82.636,18.237],[82.481,18.549],[82.363,18.422],[82.391,18.299],[82.309,18.205],[82.371,18.149],[82.265,17.996],[82.031,18.07],[81.617,17.823],[81.166,17.858],[81.058,17.733],[80.928,17.762],[80.855,17.602],[81.127,17.526],[81.323,17.375],[81.19,17.325],[81.174,17.23],[80.919,17.22],[80.845,17.04],[80.58,17.153],[80.465,17.03],[80.409,17.092],[80.363,16.976],[80.602,16.919],[80.57,16.768],[80.38,16.817],[80.196,17.044],[80.017,16.915],[80.071,16.802],[79.963,16.644],[79.774,16.731],[79.257,16.566],[79.217,16.227],[79.01,16.24],[78.905,16.184],[78.896,16.086],[78.834,16.145],[78.786,16.021],[78.408,16.075],[78.261,16.026],[78.134,15.836],[78.032,15.907],[77.085,15.919],[77.025,15.838],[77.121,15.631],[77.03,15.635],[76.974,15.498],[77.169,15.171],[77.082,15.006],[76.777,15.078],[76.767,14.976],[76.87,14.938],[76.765,14.602],[76.868,14.474],[76.975,14.485],[76.885,14.396],[76.94,14.245],[77.108,14.22],[77.136,14.337],[77.287,14.34],[77.392,14.199],[77.408,14.338],[77.517,14.184],[77.351,14.13],[77.401,14.119],[77.332,14.031],[77.438,13.976],[77.4,13.888],[77.322,14.03],[77.149,14.001],[77.028,14.062],[77.023,14.177],[76.895,14.168],[77.042,13.933],[76.999,13.746],[77.173,13.762],[77.128,13.856],[77.185,13.925],[77.2,13.863],[77.433,13.843],[77.455,13.682],[77.651,13.784],[77.717,13.741],[77.827,13.945],[77.988,13.956],[77.953,13.827],[78.115,13.863],[78.087,13.643],[78.168,13.656],[78.193,13.565],[78.402,13.587],[78.377,13.332],[78.587,13.281],[78.411,12.945],[78.465,12.867],[78.356,12.941],[78.252,12.861],[78.2,12.693],[78.371,12.627],[78.465,12.624],[78.493,12.747],[78.556,12.7],[78.621,12.991],[78.714,13.069],[79.163,13.02],[79.235,13.171],[79.307,13.106],[79.438,13.188],[79.445,13.301],[79.382,13.308],[79.435,13.352],[79.76,13.207],[79.734,13.289],[79.938,13.356],[80.047,13.494],[80.0,13.542],[80.242,13.471],[80.254,13.79],[80.127,14.15],[80.196,14.587],[80.047,15.081],[80.289,15.694],[80.681,15.886],[80.807,15.841],[80.821,15.71],[80.939,15.717],[81.305,16.304],[81.721,16.307],[82.314,16.559],[82.36,16.959],[82.355,16.851],[82.248,16.93],[82.319,17.057],[82.594,17.281],[83.213,17.591],[83.569,18.01],[84.128,18.313],[84.765,19.077],[84.676,19.168]]]}},{"type":"Feature","properties":{"name":"Puducherry"},"geometry":{"type":"Polygon","coordinates":[[[79.767,10.997],[79.725,10.929],[79.851,10.828],[79.851,10.994],[79.767,10.997]],[[79.762,12.003],[79.674,11.881],[79.808,11.836],[79.841,11.956],[79.75,11.92],[79.762,12.003]]]}},{"type":"Feature","properties":{"name":"Maharashtra"},"geometry":{"type":"Polygon","coordinates":[[[74.395,22.034],[74.281,21.933],[73.796,21.825],[73.894,21.676],[73.78,21.628],[73.853,21.497],[74.332,21.544],[73.939,21.405],[73.942,21.299],[73.823,21.271],[73.816,21.174],[73.577,21.171],[73.901,20.982],[73.942,20.742],[73.745,20.565],[73.45,20.718],[73.392,20.646],[73.494,20.538],[73.38,20.393],[73.417,20.198],[73.299,20.209],[73.179,20.047],[73.04,20.067],[72.962,20.209],[72.859,20.225],[72.708,20.071],[72.773,19.898],[72.721,19.968],[72.664,19.934],[72.729,19.602],[72.789,19.597],[72.719,19.54],[72.914,18.355],[73.029,18.264],[73.113,18.33],[73.103,18.265],[73.05,18.297],[73.106,18.141],[72.964,18.28],[72.932,18.219],[73.244,17.322],[73.19,17.299],[73.29,17.115],[73.316,16.513],[73.366,16.397],[73.499,16.418],[73.368,16.364],[73.439,16.372],[73.385,16.337],[73.449,16.309],[73.457,16.054],[73.675,15.727],[73.856,15.801],[74.021,15.606],[74.209,15.781],[74.346,15.765],[74.463,16.038],[74.361,16.054],[74.483,16.09],[74.508,16.203],[74.325,16.272],[74.364,16.405],[74.264,16.54],[74.38,16.529],[74.469,16.664],[74.569,16.554],[74.687,16.607],[74.691,16.716],[74.92,16.772],[74.932,16.945],[75.089,16.952],[75.214,16.842],[75.28,16.957],[75.67,16.962],[75.658,17.263],[75.574,17.383],[75.633,17.477],[75.793,17.37],[75.884,17.418],[75.931,17.323],[76.119,17.371],[76.176,17.301],[76.242,17.379],[76.383,17.315],[76.331,17.597],[76.49,17.66],[76.523,17.76],[76.691,17.681],[76.79,17.826],[76.74,17.9],[76.919,17.916],[76.952,18.188],[77.112,18.156],[77.32,18.458],[77.414,18.393],[77.366,18.307],[77.571,18.309],[77.528,18.442],[77.596,18.549],[77.739,18.557],[77.754,18.701],[77.949,18.83],[77.762,19.033],[77.85,19.089],[77.863,19.304],[77.945,19.342],[78.151,19.229],[78.176,19.412],[78.304,19.456],[78.263,19.665],[78.365,19.781],[78.307,19.914],[78.49,19.793],[78.841,19.762],[78.852,19.658],[78.956,19.656],[78.94,19.552],[79.19,19.459],[79.244,19.617],[79.471,19.5],[79.779,19.6],[79.98,19.389],[79.946,19.17],[79.858,19.102],[79.94,19.033],[79.914,18.824],[80.118,18.681],[80.35,18.815],[80.273,18.993],[80.483,19.338],[80.573,19.402],[80.711,19.282],[80.853,19.364],[80.813,19.434],[80.895,19.52],[80.665,19.612],[80.676,19.699],[80.546,19.818],[80.402,19.796],[80.506,19.871],[80.411,19.938],[80.53,19.939],[80.557,20.072],[80.402,20.147],[80.395,20.245],[80.626,20.336],[80.632,20.598],[80.481,20.618],[80.587,20.686],[80.439,21.096],[80.682,21.313],[80.412,21.377],[80.253,21.625],[79.891,21.518],[79.738,21.604],[79.541,21.543],[79.496,21.674],[79.231,21.722],[79.224,21.649],[78.914,21.589],[78.937,21.486],[78.451,21.497],[78.387,21.615],[77.941,21.386],[77.71,21.357],[77.489,21.374],[77.426,21.538],[77.612,21.539],[77.479,21.77],[77.281,21.759],[76.795,21.594],[76.786,21.465],[76.621,21.332],[76.623,21.185],[76.492,21.194],[76.456,21.108],[76.279,21.07],[76.11,21.161],[76.176,21.184],[76.096,21.371],[75.3,21.385],[74.902,21.629],[74.582,21.665],[74.505,21.726],[74.524,21.911],[74.395,22.034]]]}},{"type":"Feature","properties":{"name":"Dadra & Nagar Haveli"},"geometry":{"type":"Polygon","coordinates":[[[73.211,20.12],[73.169,20.208],[73.06,20.162],[73.167,20.288],[73.097,20.36],[72.917,20.281],[73.04,20.067],[73.192,20.049],[73.211,20.12]]]}},{"type":"Feature","properties":{"name":"Ladakh"},"geometry":{"type":"Polygon","coordinates":[[[74.749,37.011],[74.684,37.074],[74.581,37.043],[74.578,36.948],[74.429,36.989],[74.055,36.806],[73.689,36.911],[73.894,36.701],[73.085,36.699],[73.112,36.609],[72.991,36.457],[72.879,36.443],[72.693,36.249],[72.596,36.264],[72.529,35.926],[72.69,35.832],[73.077,35.886],[73.153,35.841],[73.136,35.719],[73.272,35.629],[73.784,35.525],[73.7,35.358],[73.731,35.217],[74.113,35.151],[74.253,35.037],[74.498,35.107],[74.587,35.01],[74.568,34.873],[74.319,34.786],[75.288,34.598],[75.404,34.285],[75.595,34.198],[75.692,34.231],[75.857,33.97],[76.022,33.997],[76.258,33.758],[76.225,33.548],[76.306,33.61],[76.449,33.564],[76.737,33.261],[76.843,33.247],[76.817,33.16],[76.933,33.028],[77.15,32.978],[77.339,32.817],[77.682,32.989],[78.016,32.62],[78.388,32.757],[78.326,32.472],[78.768,32.697],[78.826,32.438],[78.984,32.338],[79.319,32.593],[79.447,32.532],[79.625,32.737],[79.33,33.012],[79.452,33.26],[78.988,33.333],[78.915,33.632],[79.106,33.617],[78.904,33.972],[79.17,34.073],[79.425,34.017],[79.584,34.244],[79.507,34.474],[79.792,34.485],[79.774,34.627],[80.067,34.714],[80.327,35.472],[80.29,35.607],[80.106,35.68],[79.998,35.837],[79.744,35.8],[79.421,35.896],[79.383,35.994],[79.214,35.978],[79.131,35.836],[78.959,35.892],[78.422,35.785],[78.198,35.669],[78.136,35.538],[77.951,35.606],[77.981,35.455],[77.732,35.524],[77.438,35.461],[77.32,35.532],[77.485,35.532],[77.357,35.717],[76.811,35.844],[76.722,35.953],[76.801,36.047],[76.643,36.183],[75.768,36.573],[75.615,36.761],[75.473,36.81],[75.343,37.052],[74.921,36.905],[74.839,37.022],[74.749,37.011]]]}},{"type":"Feature","properties":{"name":"Jammu & Kashmir"},"geometry":{"type":"Polygon","coordinates":[[[75.366,34.392],[75.36,34.523],[75.239,34.628],[74.319,34.786],[74.568,34.873],[74.587,35.01],[74.498,35.107],[74.269,35.035],[74.092,35.096],[74.029,34.877],[73.749,34.787],[73.65,34.568],[73.447,34.574],[73.391,34.377],[73.589,33.884],[73.561,33.621],[73.632,33.533],[73.558,33.368],[73.657,33.208],[73.627,33.09],[74.37,32.759],[74.635,32.75],[74.705,32.842],[74.638,32.613],[74.688,32.486],[75.099,32.478],[75.521,32.277],[75.93,32.631],[75.801,32.886],[75.842,32.929],[75.954,32.873],[76.41,33.186],[76.747,33.179],[76.717,33.329],[76.449,33.564],[76.205,33.569],[76.265,33.746],[76.022,33.997],[75.857,33.97],[75.692,34.231],[75.497,34.233],[75.366,34.392]]]}}]}